STARLINK-31127          
1 58765U 24011A   25352.26726854  .00000220  00000+0  19545-4 0  9997
2 58765  53.1616  31.9114 0000995  69.9268 290.1839 15.30199964107802
STARLINK-31114          
1 58766U 24011B   25352.27624535  .00003030  00000+0  11445-3 0  9994
2 58766  53.1615  29.8591 0001608  94.5666 265.5518 15.30188282107839
STARLINK-31140          
1 58767U 24011C   25352.26093236  .00003282  00000+0  12293-3 0  9993
2 58767  53.1607  31.8741 0001274  82.0158 278.0987 15.30188186107807
STARLINK-31145          
1 58768U 24011D   25352.11433043  .00109399  00000+0  29011-2 0  9993
2 58768  53.1491  40.7695 0008533   8.0201 352.0938 15.37451648107664
STARLINK-31146          
1 58769U 24011E   25352.25780234 -.00002316  00000+0 -66168-4 0  9995
2 58769  53.1610  31.8523 0001333  90.7334 269.3820 15.30169296107809
STARLINK-31143          
1 58770U 24011F   25352.12397571 -.00001108  00000+0 -25294-4 0  9994
2 58770  53.1605  32.4403 0001130  92.5249 267.5881 15.30200873107780
STARLINK-31135          
1 58771U 24011G   25352.26568783 -.00000222  00000+0  46359-5 0  9996
2 58771  53.1619  29.7932 0001106  87.0738 273.0389 15.30200996107834
STARLINK-31136          
1 58772U 24011H   25352.26409988  .00000715  00000+0  36273-4 0  9997
2 58772  53.1608  31.8873 0001183  76.9013 283.2120 15.30202076107791
STARLINK-31073          
1 58773U 24011J   25352.27043982  .00000048  00000+0  13728-4 0  9996
2 58773  53.1617  31.9303 0000889  66.4653 293.6441 15.30196960107804
STARLINK-31122          
1 58774U 24011K   25352.27677144 -.00000206  00000+0  51656-5 0  9990
2 58774  53.1615  31.9650 0001071  77.3911 282.7209 15.30193726107808
STARLINK-31123          
1 58775U 24011L   25352.11870185  .00005809  00000+0  20817-3 0  9990
2 58775  53.1613  32.4060 0001386  78.1026 282.0130 15.30191750107781
STARLINK-31117          
1 58776U 24011M   25352.28415108  .00000175  00000+0  18038-4 0  9993
2 58776  53.1611  32.0084 0000790  89.9109 270.1982 15.30199381107806
STARLINK-31132          
1 58777U 24011N   25352.14109093  .00000600  00000+0  32405-4 0  9999
2 58777  53.1620 302.3216 0001316  84.0063 276.1088 15.30193670109076
STARLINK-31120          
1 58778U 24011P   25352.29681907 -.00000371  00000+0 -39580-6 0  9995
2 58778  53.1610  32.0838 0000926  94.3679 265.7428 15.30189857107809
STARLINK-31142          
1 58779U 24011Q   25352.28204139 -.00000165  00000+0  65662-5 0  9992
2 58779  53.1625  31.9942 0001187  97.6659 262.4477 15.30200795107807
STARLINK-31099          
1 58781U 24011S   25352.27888060  .00009406  00000+0  32939-3 0  9990
2 58781  53.1596  31.9768 0001366  70.6774 289.4374 15.30189393107806
STARLINK-31047          
1 58783U 24011U   25352.24815295  .00001455  00000+0  61211-4 0  9991
2 58783  53.1614  16.4159 0000736 109.4736 250.6345 15.30212675108023
STARLINK-31039          
1 58784U 24011V   25352.27254760 -.00000444  00000+0 -28725-5 0  9992
2 58784  53.1613  31.9327 0001079  72.9778 287.1341 15.30193724107802
STARLINK-31034          
1 58785U 24011W   25352.13009422  .00000100  00000+0  15520-4 0  9996
2 58785  53.1614 290.1487 0001185  95.6810 264.4326 15.30194418109249
STARLINK-31024          
1 58786U 24011X   25352.27729416 -.00003385  00000+0 -10218-3 0  9992
2 58786  53.1619  29.8572 0001169  87.3081 272.8054 15.30209164107836
STARLINK-31189          
1 58787U 24012A   25352.17511921 -.00003129  00000+0 -10420-3 0  9994
2 58787  43.0003 265.2397 0001216 260.8056  99.2658 15.27589771108772
STARLINK-31185          
1 58788U 24012B   25352.16627058 -.00001454  00000+0 -43328-4 0  9996
2 58788  43.0024 266.0254 0001164 277.5787  82.4932 15.27582114108767
STARLINK-31166          
1 58789U 24012C   25352.19182601 -.00001657  00000+0 -50722-4 0  9991
2 58789  43.0011 265.3538 0000673 282.1383  77.9393 15.27574864108773
STARLINK-31187          
1 58790U 24012D   25352.16498909 -.00001812  00000+0 -56340-4 0  9996
2 58790  43.0013 266.0190 0001068 285.3192  74.7542 15.27582842108766
STARLINK-31162          
1 58791U 24012E   25352.19053710 -.00001094  00000+0 -30229-4 0  9997
2 58791  43.0007 265.3552 0001041 260.8697  99.2037 15.27580577108778
STARLINK-31184          
1 58793U 24012G   25352.12001808 -.00001376  00000+0 -40486-4 0  9992
2 58793  43.0022 265.6809 0000881 282.3818  77.6935 15.27572040108762
STARLINK-31192          
1 58794U 24012H   25352.16241180 -.00006420  00000+0 -22381-3 0  9994
2 58794  43.0034 265.9930 0001535 258.5048 101.5631 15.27600795108760
STARLINK-31161          
1 58795U 24012J   25352.18797109 -.00001614  00000+0 -49167-4 0  9996
2 58795  43.0049 265.3259 0001009 287.3424  72.7317 15.27572086108771
STARLINK-31195          
1 58796U 24012K   25352.17013286  .00000130  00000+0  14243-4 0  9990
2 58796  43.0049 266.0565 0001242 277.5265  82.5445 15.27565955108760
STARLINK-31193          
1 58797U 24012L   25352.13156866 -.00000632  00000+0 -13416-4 0  9999
2 58797  43.0063 265.7656 0003462 255.0786 104.9682 15.27575124108760
STARLINK-31168          
1 58798U 24012M   25352.20081723 -.00001544  00000+0 -46619-4 0  9991
2 58798  43.0012 265.4245 0000905 260.2260  99.8489 15.27576079108778
STARLINK-31191          
1 58800U 24012P   25352.18152220  .00005180  00000+0  19748-3 0  9993
2 58800  43.0003 265.2795 0000683 294.7721  65.3060 15.27603356108779
STARLINK-31170          
1 58801U 24012Q   25352.14186273  .00001099  00000+0  49485-4 0  9992
2 58801  43.0050 265.8426 0000623 348.4667  11.6170 15.27563516108767
STARLINK-31141          
1 58803U 24012S   25352.15213673 -.00012706  00000+0 -45337-3 0  9990
2 58803  43.0004 265.9202 0001016 276.2521  83.8215 15.27553011108765
STARLINK-31188          
1 58804U 24012T   25352.14571262 -.00000206  00000+0  20071-5 0  9992
2 58804  42.9935 265.8738 0000311 130.2000 229.8879 15.27579109108762
STARLINK-31138          
1 58806U 24012V   25352.14828938  .00000955  00000+0  44229-4 0  9999
2 58806  43.0027 265.8871 0000381 279.8315  80.2493 15.27564196108763
STARLINK-31163          
1 58807U 24012W   25352.17383267 -.00001264  00000+0 -36435-4 0  9990
2 58807  43.0004 265.2236 0001035 273.4477  86.6256 15.27582481108779
STARLINK-31174          
1 58808U 24012X   25352.17257632 -.00003267  00000+0 -10933-3 0  9996
2 58808  42.9998 265.2135 0001207 261.8349  98.2365 15.27558978108772
STARLINK-31169          
1 58809U 24012Y   25352.14443128 -.00002589  00000+0 -84600-4 0  9990
2 58809  43.0009 265.8592 0000640 286.8250  73.2531 15.27576826108768
NANOFF A                
1 58810U 23185T   25352.27019929  .00004165  00000+0  25501-3 0  9998
2 58810  97.5520  57.2334 0009845 204.0112 156.0660 15.10706533105711
SORAYA                  
1 58817U 24015A   25352.26269565  .00000079  00000+0  55673-4 0  9994
2 58817  64.5136 246.4138 0020853 228.3590 131.5710 14.42625348100672
2024-016A               
1 58820U 24016A   25352.29389292  .00023821  00000+0  52752-3 0  9996
2 58820  97.4591  76.7217 0006975   0.5039 359.6215 15.43759471106064
2024-016B               
1 58821U 24016B   25352.31128551  .00040794  00000+0  80382-3 0  9997
2 58821  97.4598  75.8469 0006569   4.6696 355.4614 15.47086812106001
2024-016C               
1 58822U 24016C   25352.26351907  .00007742  00000+0  34316-3 0  9997
2 58822  97.4551  69.2820 0012303 111.2509 249.0043 15.21824394105583
2024-016D               
1 58823U 24016D   25352.28213774  .00023684  00000+0  59781-3 0  9995
2 58823  97.4498  72.6098 0008275  17.8707 342.2828 15.39805079105825
STARLINK-31233          
1 58826U 24017A   25352.02446352 -.00001757  00000+0 -47203-4 0  9997
2 58826  53.1597 223.6002 0001333  82.1193 277.9959 15.30198781107672
STARLINK-31271          
1 58827U 24017B   25351.92022392  .01097234  00000+0  33575-1 0  9998
2 58827  53.1581 224.3701 0001595  82.6363 277.4819 15.30441569107534
STARLINK-31222          
1 58828U 24017C   25351.93275982 -.00001880  00000+0 -51376-4 0  9990
2 58828  53.1584 223.7334 0001125  92.2772 267.8358 15.30198459107542
STARLINK-31258          
1 58829U 24017D   25352.03079277 -.00002875  00000+0 -84955-4 0  9996
2 58829  53.1609 223.6293 0001417  99.6741 260.4420 15.30204421107552
STARLINK-31253          
1 58830U 24017E   25351.94647990 -.00006361  00000+0 -20279-3 0  9992
2 58830  53.1597 223.8173 0001021  86.1123 273.9994 15.30205014107548
STARLINK-31232          
1 58831U 24017F   25352.07287446 -.00009034  00000+0 -29334-3 0  9995
2 58831  53.1576 223.1854 0001398  76.6405 283.4752 15.30191008107566
STARLINK-31263          
1 58832U 24017G   25351.92125785 -.00001769  00000+0 -47634-4 0  9997
2 58832  53.1598 213.7199 0001506  90.3152 269.8022 15.30192674107794
STARLINK-31171          
1 58834U 24017J   25351.99121395 -.00000794  00000+0 -14674-4 0  9994
2 58834  53.1595 200.2491 0001457  81.8349 278.2817 15.30197227107871
STARLINK-31246          
1 58835U 24017K   25352.02129344 -.00002746  00000+0 -80648-4 0  9995
2 58835  53.1586 223.5707 0001458  82.7099 277.4068 15.30190219107551
STARLINK-31251          
1 58836U 24017L   25352.02868863 -.00001727  00000+0 -46225-4 0  9993
2 58836  53.1608 223.6175 0001525  86.5405 273.5770 15.30185064107666
STARLINK-31249          
1 58838U 24017N   25352.03502451  .00001427  00000+0  60295-4 0  9992
2 58838  53.1599 223.6599 0001223  89.0528 271.0613 15.30202141107559
STARLINK-31250          
1 58839U 24017P   25352.00239295 -.00001371  00000+0 -34156-4 0  9990
2 58839  53.1593 213.5142 0001374  95.8638 264.2519 15.30196172107645
STARLINK-31248          
1 58840U 24017Q   25352.07660388 -.00002113  00000+0 -59216-4 0  9999
2 58840  53.1598 235.9690 0001333  96.5238 263.5915 15.30209329107491
STARLINK-31236          
1 58841U 24017R   25351.97603049  .00000269  00000+0  21231-4 0  9993
2 58841  53.1598 224.0021 0001384  91.7745 268.3415 15.30191080107543
